{
    "links": {
        "self": "http://www.neowsapp.com/rest/v1/neo/3449118?api_key=iIulBulltgU6a56xZRHN4H3l9WmuAYTsLGpBGhQ2"
    },
    "id": "3449118",
    "neo_reference_id": "3449118",
    "name": "(2009 ET)",
    "designation": "2009 ET",
    "nasa_jpl_url": "http://ssd.jpl.nasa.gov/sbdb.cgi?sstr=3449118",
    "absolute_magnitude_h": 27.3,
    "estimated_diameter": {
        "kilometers": {
            "estimated_diameter_min": 0.0092162655,
            "estimated_diameter_max": 0.0206081961
        },
        "meters": {
            "estimated_diameter_min": 9.216265485,
            "estimated_diameter_max": 20.6081961232
        },
        "miles": {
            "estimated_diameter_min": 0.0057267201,
            "estimated_diameter_max": 0.0128053354
        },
        "feet": {
            "estimated_diameter_min": 30.2370924539,
            "estimated_diameter_max": 67.6121941689
        }
    },
    "is_potentially_hazardous_asteroid": false,
    "close_approach_data": [
        {
            "close_approach_date": "2009-03-09",
            "close_approach_date_full": "2009-Mar-09 17:13",
            "epoch_date_close_approach": 1236618780000,
            "relative_velocity": {
                "kilometers_per_second": "4.7640598544",
                "kilometers_per_hour": "17150.615476017",
                "miles_per_hour": "10656.7254884173"
            },
            "miss_distance": {
                "astronomical": "0.0244723878",
                "lunar": "9.5197588542",
                "kilometers": "3661017.088693986",
                "miles": "2274850.5326935668"
            },
            "orbiting_body": "Earth"
        },
        {
            "close_approach_date": "2115-01-31",
            "close_approach_date_full": "2115-Jan-31 12:42",
            "epoch_date_close_approach": 4578381720000,
            "relative_velocity": {
                "kilometers_per_second": "18.2024166138",
                "kilometers_per_hour": "65528.6998096134",
                "miles_per_hour": "40716.9857233678"
            },
            "miss_distance": {
                "astronomical": "0.4566343017",
                "lunar": "177.6307433613",
                "kilometers": "68311518.903257379",
                "miles": "42446809.5617706702"
            },
            "orbiting_body": "Earth"
        }
    ],
    "orbital_data": {
        "orbit_id": "6",
        "orbit_determination_date": "2017-04-06 09:01:08",
        "first_observation_date": "2009-03-02",
        "last_observation_date": "2009-03-03",
        "data_arc_in_days": 1,
        "observations_used": 15,
        "orbit_uncertainty": "9",
        "minimum_orbit_intersection": ".0235795",
        "jupiter_tisserand_invariant": "4.599",
        "epoch_osculation": "2454893.5",
        "eccentricity": ".3051348693046078",
        "semi_major_axis": "1.447059137486834",
        "inclination": "3.175862827810355",
        "ascending_node_longitude": "153.4984167854786",
        "orbital_period": "635.8107211602569",
        "perihelion_distance": "1.00551093669375",
        "perihelion_argument": "28.92696028457802",
        "aphelion_distance": "1.888607338279917",
        "perihelion_time": "2454911.894760668766",
        "mean_anomaly": "349.5847716618062",
        "mean_motion": ".5662062434918608",
        "equinox": "J2000",
        "orbit_class": {
            "orbit_class_type": "APO",
            "orbit_class_description": "Near-Earth asteroid orbits which cross the Earth’s orbit similar to that of 1862 Apollo",
            "orbit_class_range": "a (semi-major axis) > 1.0 AU; q (perihelion) < 1.017 AU"
        }
    },
    "is_sentry_object": false
}